STARLINK-32603          
1 62072U 24217R   26068.58581748  .00055056  00000+0  18575-2 0  9999
2 62072  53.1591 194.5036 0001028 114.8827 245.2281 15.30195162 73459
TRANSPORTER-12 OBJECT AZ
1 62656U 25009AZ  26068.71026235  .00016057  00000+0  54903-3 0  9991
2 62656  97.3981 151.9913 0000987  45.3581 314.7740 15.30349724 63792
